{
  "type": "FeatureCollection",
  "features": [
    {
      "type": "Feature",
      "properties": {
        "norad_id": 43564,
        "name": "GSAT0221 (GALILEO 25)",
        "group": "galileo",
        "lat": 39.103199416889105,
        "lon": 135.48359799406796,
        "alt_km": 23233.992263447573,
        "timestamp": "2025-12-03T22:42:32.898946+00:00",
        "meta_object_name": "GSAT0221 (GALILEO 25)",
        "meta_object_id": "2018-060A",
        "meta_epoch": "2025-12-01T09:15:23.303232",
        "meta_mean_motion": 1.70475711,
        "meta_eccentricity": 0.00066191,
        "meta_inclination": 57.2301,
        "meta_ra_of_asc_node": 347.1247,
        "meta_arg_of_pericenter": 279.777,
        "meta_mean_anomaly": 80.1905,
        "meta_ephemeris_type": 0,
        "meta_classification_type": "U",
        "meta_norad_cat_id": 43564,
        "meta_element_set_no": 999,
        "meta_rev_at_epoch": 4579,
        "meta_bstar": 0,
        "meta_mean_motion_dot": -5.9e-07,
        "meta_mean_motion_ddot": 0,
        "tle_line1": "1 43564U 18060A   25335.38568638 -.00000059  00000+0  00000+0 0  9995",
        "tle_line2": "2 43564  57.2301 347.1247 0006619 279.7770  80.1905  1.70475711 45792"
      },
      "geometry": {
        "type": "Point",
        "coordinates": [
          135.48359799406796,
          39.103199416889105
        ]
      }
    },
    {
      "type": "Feature",
      "properties": {
        "norad_id": 43565,
        "name": "GSAT0222 (GALILEO 26)",
        "group": "galileo",
        "lat": -2.642591942085793,
        "lon": -14.639468944407067,
        "alt_km": 23224.713011005908,
        "timestamp": "2025-12-03T22:42:32.898957+00:00",
        "meta_object_name": "GSAT0222 (GALILEO 26)",
        "meta_object_id": "2018-060B",
        "meta_epoch": "2025-12-02T18:40:34.091904",
        "meta_mean_motion": 1.70475403,
        "meta_eccentricity": 0.0006181,
        "meta_inclination": 57.2338,
        "meta_ra_of_asc_node": 347.09,
        "meta_arg_of_pericenter": 260.4743,
        "meta_mean_anomaly": 99.4943,
        "meta_ephemeris_type": 0,
        "meta_classification_type": "U",
        "meta_norad_cat_id": 43565,
        "meta_element_set_no": 999,
        "meta_rev_at_epoch": 4586,
        "meta_bstar": 0,
        "meta_mean_motion_dot": -6.4e-07,
        "meta_mean_motion_ddot": 0,
        "tle_line1": "1 43565U 18060B   25336.77817236 -.00000064  00000+0  00000+0 0  9997",
        "tle_line2": "2 43565  57.2338 347.0900 0006181 260.4743  99.4943  1.70475403 45860"
      },
      "geometry": {
        "type": "Point",
        "coordinates": [
          -14.639468944407067,
          -2.642591942085793
        ]
      }
    },
    {
      "type": "Feature",
      "properties": {
        "norad_id": 43566,
        "name": "GSAT0219 (GALILEO 23)",
        "group": "galileo",
        "lat": -33.506258435788425,
        "lon": -167.68829648297583,
        "alt_km": 23218.86082662111,
        "timestamp": "2025-12-03T22:42:32.898968+00:00",
        "meta_object_name": "GSAT0219 (GALILEO 23)",
        "meta_object_id": "2018-060C",
        "meta_epoch": "2025-11-30T01:35:38.037408",
        "meta_mean_motion": 1.70475682,
        "meta_eccentricity": 0.00057799,
        "meta_inclination": 57.2334,
        "meta_ra_of_asc_node": 347.165,
        "meta_arg_of_pericenter": 285.7575,
        "meta_mean_anomaly": 74.2225,
        "meta_ephemeris_type": 0,
        "meta_classification_type": "U",
        "meta_norad_cat_id": 43566,
        "meta_element_set_no": 999,
        "meta_rev_at_epoch": 4579,
        "meta_bstar": 0,
        "meta_mean_motion_dot": -5.6e-07,
        "meta_mean_motion_ddot": 0,
        "tle_line1": "1 43566U 18060C   25334.06641247 -.00000056  00000+0  00000+0 0  9996",
        "tle_line2": "2 43566  57.2334 347.1650 0005779 285.7575  74.2225  1.70475682 45790"
      },
      "geometry": {
        "type": "Point",
        "coordinates": [
          -167.68829648297583,
          -33.506258435788425
        ]
      }
    },
    {
      "type": "Feature",
      "properties": {
        "norad_id": 43567,
        "name": "GSAT0220 (GALILEO 24)",
        "group": "galileo",
        "lat": 56.9382979290663,
        "lon": 68.82668115277744,
        "alt_km": 23233.030017730336,
        "timestamp": "2025-12-03T22:42:32.898978+00:00",
        "meta_object_name": "GSAT0220 (GALILEO 24)",
        "meta_object_id": "2018-060D",
        "meta_epoch": "2025-12-01T11:03:06.852672",
        "meta_mean_motion": 1.70475407,
        "meta_eccentricity": 0.00061058,
        "meta_inclination": 57.2328,
        "meta_ra_of_asc_node": 347.128,
        "meta_arg_of_pericenter": 280.6549,
        "meta_mean_anomaly": 79.3184,
        "meta_ephemeris_type": 0,
        "meta_classification_type": "U",
        "meta_norad_cat_id": 43567,
        "meta_element_set_no": 999,
        "meta_rev_at_epoch": 4580,
        "meta_bstar": 0,
        "meta_mean_motion_dot": -5.9e-07,
        "meta_mean_motion_ddot": 0,
        "tle_line1": "1 43567U 18060D   25335.46049598 -.00000059  00000+0  00000+0 0  9996",
        "tle_line2": "2 43567  57.2328 347.1280 0006105 280.6549  79.3184  1.70475407 45809"
      },
      "geometry": {
        "type": "Point",
        "coordinates": [
          68.82668115277744,
          56.9382979290663
        ]
      }
    },
    {
      "type": "Feature",
      "properties": {
        "norad_id": 49809,
        "name": "GSAT0223 (GALILEO 27)",
        "group": "galileo",
        "lat": 3.1786174904585156,
        "lon": 164.90648110698558,
        "alt_km": 23217.491600082987,
        "timestamp": "2025-12-03T22:42:32.898989+00:00",
        "meta_object_name": "GSAT0223 (GALILEO 27)",
        "meta_object_id": "2021-116A",
        "meta_epoch": "2025-12-01T07:17:38.669856",
        "meta_mean_motion": 1.70475545,
        "meta_eccentricity": 0.00047526,
        "meta_inclination": 57.2221,
        "meta_ra_of_asc_node": 347.0231,
        "meta_arg_of_pericenter": 247.908,
        "meta_mean_anomaly": 106.7158,
        "meta_ephemeris_type": 0,
        "meta_classification_type": "U",
        "meta_norad_cat_id": 49809,
        "meta_element_set_no": 999,
        "meta_rev_at_epoch": 2480,
        "meta_bstar": 0,
        "meta_mean_motion_dot": -5.9e-07,
        "meta_mean_motion_ddot": 0,
        "tle_line1": "1 49809U 21116A   25335.30391979 -.00000059  00000+0  00000+0 0  9993",
        "tle_line2": "2 49809  57.2221 347.0231 0004752 247.9080 106.7158  1.70475545 24809"
      },
      "geometry": {
        "type": "Point",
        "coordinates": [
          164.90648110698558,
          3.1786174904585156
        ]
      }
    },
    {
      "type": "Feature",
      "properties": {
        "norad_id": 49810,
        "name": "GSAT0224 (GALILEO 28)",
        "group": "galileo",
        "lat": -52.697643989261614,
        "lon": -70.81371569966477,
        "alt_km": 23218.387981725475,
        "timestamp": "2025-12-03T22:42:32.899000+00:00",
        "meta_object_name": "GSAT0224 (GALILEO 28)",
        "meta_object_id": "2021-116B",
        "meta_epoch": "2025-12-01T10:08:38.707008",
        "meta_mean_motion": 1.70475584,
        "meta_eccentricity": 0.00040435,
        "meta_inclination": 57.2228,
        "meta_ra_of_asc_node": 347.0184,
        "meta_arg_of_pericenter": 250.3752,
        "meta_mean_anomaly": 289.7186,
        "meta_ephemeris_type": 0,
        "meta_classification_type": "U",
        "meta_norad_cat_id": 49810,
        "meta_element_set_no": 999,
        "meta_rev_at_epoch": 2483,
        "meta_bstar": 0,
        "meta_mean_motion_dot": -5.9e-07,
        "meta_mean_motion_ddot": 0,
        "tle_line1": "1 49810U 21116B   25335.42267022 -.00000059  00000+0  00000+0 0  9999",
        "tle_line2": "2 49810  57.2228 347.0184 0004043 250.3752 289.7186  1.70475584 24831"
      },
      "geometry": {
        "type": "Point",
        "coordinates": [
          -70.81371569966477,
          -52.697643989261614
        ]
      }
    },
    {
      "type": "Feature",
      "properties": {
        "norad_id": 59598,
        "name": "GSAT0225 (GALILEO 29)",
        "group": "galileo",
        "lat": -53.41900495264999,
        "lon": 35.83964296309691,
        "alt_km": 23230.07718185112,
        "timestamp": "2025-12-03T22:42:32.899010+00:00",
        "meta_object_name": "GSAT0225 (GALILEO 29)",
        "meta_object_id": "2024-079A",
        "meta_epoch": "2025-12-01T03:29:20.871744",
        "meta_mean_motion": 1.70474544,
        "meta_eccentricity": 0.0002155,
        "meta_inclination": 54.9941,
        "meta_ra_of_asc_node": 106.6197,
        "meta_arg_of_pericenter": 171.5653,
        "meta_mean_anomaly": 190.7741,
        "meta_ephemeris_type": 0,
        "meta_classification_type": "U",
        "meta_norad_cat_id": 59598,
        "meta_element_set_no": 999,
        "meta_rev_at_epoch": 994,
        "meta_bstar": 0,
        "meta_mean_motion_dot": 4.1e-07,
        "meta_mean_motion_ddot": 0,
        "tle_line1": "1 59598U 24079A   25335.14538046  .00000041  00000+0  00000+0 0  9990",
        "tle_line2": "2 59598  54.9941 106.6197 0002155 171.5653 190.7741  1.70474544  9948"
      },
      "geometry": {
        "type": "Point",
        "coordinates": [
          35.83964296309691,
          -53.41900495264999
        ]
      }
    }
  ]
}